start=new Date('2022-04-05T00:00:00.000Z').valueOf();
sats=[{"APOAPSIS":"548.302","MEAN_ELEMENT_THEORY":"SGP4","OBJECT_TYPE":"PAYLOAD","RCS_SIZE":"LARGE","CENTER_NAME":"EARTH","OBJECT_NAME":"STARLINK-2647","PERIAPSIS":"546.171","REF_FRAME":"TEME","SEMIMAJOR_AXIS":"6925.371","DECAY_DATE":null,"PERIOD":"95.593","MEAN_MOTION_DOT":"0.00001239","SITE":"AFETR","EPHEMERIS_TYPE":"0","MEAN_MOTION_DDOT":"0.0000000000000","RA_OF_ASC_NODE":"84.9870","ECCENTRICITY":"0.00015390","REV_AT_EPOCH":"4827","LAUNCH_DATE":"2021-05-26","MEAN_MOTION":"15.06392539","TIME_SYSTEM":"UTC","FILE":"3388058","NORAD_CAT_ID":"48658","ARG_OF_PERICENTER":"50.4763","TLE_LINE2":"2 48658  53.0542  84.9870 0001539  50.4763 309.6362 15.06392539 48274","TLE_LINE1":"1 48658U 21044W   22094.37853487  .00001239  00000-0  10208-3 0  9993","COUNTRY_CODE":"US","GP_ID":"200431457","OBJECT_ID":"2021-044W","EPOCH":"2022-04-04T09:05:05.412768","BSTAR":"0.00010208000000","MEAN_ANOMALY":"309.6362","INCLINATION":"53.0542","CLASSIFICATION_TYPE":"U","ELEMENT_SET_NO":"999"},{"TIME_SYSTEM":"UTC","MEAN_MOTION":"15.06403887","ARG_OF_PERICENTER":"59.7296","FILE":"3388061","NORAD_CAT_ID":"48659","COUNTRY_CODE":"US","TLE_LINE1":"1 48659U 21044X   22094.77292262 -.00000192  00000-0  60062-5 0  9999","GP_ID":"200431303","TLE_LINE2":"2 48659  53.0543  83.2147 0001530  59.7296 300.3844 15.06403887 48271","INCLINATION":"53.0543","MEAN_ANOMALY":"300.3844","ELEMENT_SET_NO":"999","CLASSIFICATION_TYPE":"U","EPOCH":"2022-04-04T18:33:00.514368","OBJECT_ID":"2021-044X","BSTAR":"0.00000600620000","MEAN_ELEMENT_THEORY":"SGP4","APOAPSIS":"548.261","OBJECT_NAME":"STARLINK-2717","PERIAPSIS":"546.142","OBJECT_TYPE":"PAYLOAD","CENTER_NAME":"EARTH","RCS_SIZE":"LARGE","SEMIMAJOR_AXIS":"6925.337","DECAY_DATE":null,"MEAN_MOTION_DOT":"-0.00000192","PERIOD":"95.592","REF_FRAME":"TEME","REV_AT_EPOCH":"4827","ECCENTRICITY":"0.00015300","RA_OF_ASC_NODE":"83.2147","LAUNCH_DATE":"2021-05-26","EPHEMERIS_TYPE":"0","SITE":"AFETR","MEAN_MOTION_DDOT":"0.0000000000000"},{"BSTAR":"0.00009424800000","OBJECT_ID":"2021-044Y","EPOCH":"2022-04-04T08:54:28.280160","ELEMENT_SET_NO":"999","CLASSIFICATION_TYPE":"U","MEAN_ANOMALY":"294.6028","INCLINATION":"53.0560","TLE_LINE2":"2 48660  53.0560  85.0223 0001753  65.5143 294.6028 15.06397195 47373","COUNTRY_CODE":"US","TLE_LINE1":"1 48660U 21044Y   22094.37116065  .00001122  00000-0  94248-4 0  9998","GP_ID":"200426661","NORAD_CAT_ID":"48660","FILE":"3387897","ARG_OF_PERICENTER":"65.5143","MEAN_MOTION":"15.06397195","TIME_SYSTEM":"UTC","MEAN_MOTION_DDOT":"0.0000000000000","EPHEMERIS_TYPE":"0","SITE":"AFETR","LAUNCH_DATE":"2021-05-26","RA_OF_ASC_NODE":"85.0223","ECCENTRICITY":"0.00017530","REV_AT_EPOCH":"4737","REF_FRAME":"TEME","PERIOD":"95.592","MEAN_MOTION_DOT":"0.00001122","DECAY_DATE":null,"SEMIMAJOR_AXIS":"6925.357","RCS_SIZE":"LARGE","CENTER_NAME":"EARTH","OBJECT_TYPE":"PAYLOAD","PERIAPSIS":"546.008","OBJECT_NAME":"STARLINK-2688","APOAPSIS":"548.436","MEAN_ELEMENT_THEORY":"SGP4"},{"OBJECT_NAME":"STARLINK-2708","PERIAPSIS":"545.917","OBJECT_TYPE":"PAYLOAD","RCS_SIZE":"LARGE","CENTER_NAME":"EARTH","MEAN_ELEMENT_THEORY":"SGP4","APOAPSIS":"548.544","RA_OF_ASC_NODE":"73.8273","ECCENTRICITY":"0.00018970","REV_AT_EPOCH":"4845","LAUNCH_DATE":"2021-05-26","EPHEMERIS_TYPE":"0","SITE":"AFETR","MEAN_MOTION_DDOT":"0.0000000000000","DECAY_DATE":null,"SEMIMAJOR_AXIS":"6925.365","PERIOD":"95.592","MEAN_MOTION_DOT":"0.00000033","REF_FRAME":"TEME","ARG_OF_PERICENTER":"49.1031","FILE":"3388063","NORAD_CAT_ID":"48661","TIME_SYSTEM":"UTC","MEAN_MOTION":"15.06394531","INCLINATION":"53.0569","MEAN_ANOMALY":"311.0122","ELEMENT_SET_NO":"999","CLASSIFICATION_TYPE":"U","OBJECT_ID":"2021-044Z","EPOCH":"2022-04-04T15:17:57.861600","BSTAR":"0.00002110500000","TLE_LINE2":"2 48661  53.0569  73.8273 0001897  49.1031 311.0122 15.06394531 48456","GP_ID":"200431345","TLE_LINE1":"1 48661U 21044Z   22094.63747525  .00000033  00000-0  21105-4 0  9991","COUNTRY_CODE":"US"},{"OBJECT_NAME":"STARLINK-2726","PERIAPSIS":"546.142","OBJECT_TYPE":"PAYLOAD","CENTER_NAME":"EARTH","RCS_SIZE":"LARGE","MEAN_ELEMENT_THEORY":"SGP4","APOAPSIS":"548.320","REV_AT_EPOCH":"4752","ECCENTRICITY":"0.00015720","RA_OF_ASC_NODE":"74.7336","LAUNCH_DATE":"2021-05-26","SITE":"AFETR","EPHEMERIS_TYPE":"0","MEAN_MOTION_DDOT":"0.0000000000000","DECAY_DATE":null,"SEMIMAJOR_AXIS":"6925.366","MEAN_MOTION_DOT":"0.00002782","PERIOD":"95.593","REF_FRAME":"TEME","ARG_OF_PERICENTER":"64.3741","FILE":"3387897","NORAD_CAT_ID":"48662","TIME_SYSTEM":"UTC","MEAN_MOTION":"15.06394292","MEAN_ANOMALY":"295.7411","INCLINATION":"53.0543","ELEMENT_SET_NO":"999","CLASSIFICATION_TYPE":"U","EPOCH":"2022-04-04T10:26:01.913568","OBJECT_ID":"2021-044AA","BSTAR":"0.00020562000000","TLE_LINE1":"1 48662U 21044AA  22094.43474437  .00002782  00000-0  20562-3 0  9997","COUNTRY_CODE":"US","GP_ID":"200425404","TLE_LINE2":"2 48662  53.0543  74.7336 0001572  64.3741 295.7411 15.06394292 47526"},{"RCS_SIZE":"LARGE","CENTER_NAME":"EARTH","OBJECT_TYPE":"PAYLOAD","PERIAPSIS":"546.118","OBJECT_NAME":"STARLINK-2667","APOAPSIS":"548.326","MEAN_ELEMENT_THEORY":"SGP4","MEAN_MOTION_DDOT":"0.0000000000000","EPHEMERIS_TYPE":"0","SITE":"AFETR","LAUNCH_DATE":"2021-05-26","RA_OF_ASC_NODE":"75.0391","ECCENTRICITY":"0.00015940","REV_AT_EPOCH":"4751","REF_FRAME":"TEME","PERIOD":"95.592","MEAN_MOTION_DOT":"0.00001572","DECAY_DATE":null,"SEMIMAJOR_AXIS":"6925.357","NORAD_CAT_ID":"48663","FILE":"3387897","ARG_OF_PERICENTER":"59.3652","MEAN_MOTION":"15.06397191","TIME_SYSTEM":"UTC","BSTAR":"0.00012440000000","OBJECT_ID":"2021-044AB","EPOCH":"2022-04-04T08:45:10.745280","ELEMENT_SET_NO":"999","CLASSIFICATION_TYPE":"U","MEAN_ANOMALY":"300.7494","INCLINATION":"53.0552","TLE_LINE2":"2 48663  53.0552  75.0391 0001594  59.3652 300.7494 15.06397191 47519","COUNTRY_CODE":"US","TLE_LINE1":"1 48663U 21044AB  22094.36470770  .00001572  00000-0  12440-3 0  9998","GP_ID":"200426641"},{"GP_ID":"200426162","TLE_LINE1":"1 48664U 21044AC  22094.42737180  .00001721  00000-0  13441-3 0  9995","COUNTRY_CODE":"US","TLE_LINE2":"2 48664  53.0556  74.7753 0001685  54.7251 305.3895 15.06391520 47524","BSTAR":"0.00013441000000","EPOCH":"2022-04-04T10:15:24.923520","OBJECT_ID":"2021-044AC","CLASSIFICATION_TYPE":"U","ELEMENT_SET_NO":"999","INCLINATION":"53.0556","MEAN_ANOMALY":"305.3895","MEAN_MOTION":"15.06391520","TIME_SYSTEM":"UTC","NORAD_CAT_ID":"48664","FILE":"3387897","ARG_OF_PERICENTER":"54.7251","REF_FRAME":"TEME","MEAN_MOTION_DOT":"0.00001721","PERIOD":"95.593","DECAY_DATE":null,"SEMIMAJOR_AXIS":"6925.375","MEAN_MOTION_DDOT":"0.0000000000000","EPHEMERIS_TYPE":"0","SITE":"AFETR","LAUNCH_DATE":"2021-05-26","REV_AT_EPOCH":"4752","ECCENTRICITY":"0.00016850","RA_OF_ASC_NODE":"74.7753","APOAPSIS":"548.406","MEAN_ELEMENT_THEORY":"SGP4","CENTER_NAME":"EARTH","RCS_SIZE":"LARGE","OBJECT_TYPE":"PAYLOAD","PERIAPSIS":"546.073","OBJECT_NAME":"STARLINK-2709"},{"OBJECT_TYPE":"PAYLOAD","CENTER_NAME":"EARTH","RCS_SIZE":"LARGE","OBJECT_NAME":"STARLINK-2653","PERIAPSIS":"546.003","APOAPSIS":"548.459","MEAN_ELEMENT_THEORY":"SGP4","EPHEMERIS_TYPE":"0","SITE":"AFETR","MEAN_MOTION_DDOT":"0.0000000000000","REV_AT_EPOCH":"4752","ECCENTRICITY":"0.00017730","RA_OF_ASC_NODE":"74.7117","LAUNCH_DATE":"2021-05-26","REF_FRAME":"TEME","SEMIMAJOR_AXIS":"6925.366","DECAY_DATE":null,"MEAN_MOTION_DOT":"0.00000954","PERIOD":"95.592","FILE":"3387897","NORAD_CAT_ID":"48665","ARG_OF_PERICENTER":"52.3567","MEAN_MOTION":"15.06394389","TIME_SYSTEM":"UTC","EPOCH":"2022-04-04T10:35:16.646496","OBJECT_ID":"2021-044AD","BSTAR":"0.00008297000000","INCLINATION":"53.0548","MEAN_ANOMALY":"307.7583","CLASSIFICATION_TYPE":"U","ELEMENT_SET_NO":"999","GP_ID":"200426911","TLE_LINE1":"1 48665U 21044AD  22094.44116489  .00000954  00000-0  82970-4 0  9992","COUNTRY_CODE":"US","TLE_LINE2":"2 48665  53.0548  74.7117 0001773  52.3567 307.7583 15.06394389 47528"},{"ARG_OF_PERICENTER":"56.2274","NORAD_CAT_ID":"48666","FILE":"3387897","TIME_SYSTEM":"UTC","MEAN_MOTION":"15.06389185","ELEMENT_SET_NO":"999","CLASSIFICATION_TYPE":"U","MEAN_ANOMALY":"303.8868","INCLINATION":"53.0550","BSTAR":"0.00002093000000","EPOCH":"2022-04-04T08:11:58.590240","OBJECT_ID":"2021-044AE","TLE_LINE1":"1 48666U 21044AE  22094.34165035  .00000030  00000-0  20930-4 0  9996","COUNTRY_CODE":"US","GP_ID":"200425904","TLE_LINE2":"2 48666  53.0550  75.1413 0001607  56.2274 303.8868 15.06389185 47509","PERIAPSIS":"546.134","OBJECT_NAME":"STARLINK-2666","CENTER_NAME":"EARTH","RCS_SIZE":"LARGE","OBJECT_TYPE":"PAYLOAD","MEAN_ELEMENT_THEORY":"SGP4","APOAPSIS":"548.360","LAUNCH_DATE":"2021-05-26","REV_AT_EPOCH":"4750","ECCENTRICITY":"0.00016070","RA_OF_ASC_NODE":"75.1413","MEAN_MOTION_DDOT":"0.0000000000000","SITE":"AFETR","EPHEMERIS_TYPE":"0","MEAN_MOTION_DOT":"0.00000030","PERIOD":"95.593","DECAY_DATE":null,"SEMIMAJOR_AXIS":"6925.382","REF_FRAME":"TEME"},{"BSTAR":"0.00011790000000","OBJECT_ID":"2021-044AF","EPOCH":"2022-04-04T08:34:33.744000","CLASSIFICATION_TYPE":"U","ELEMENT_SET_NO":"999","MEAN_ANOMALY":"302.8512","INCLINATION":"53.0565","TLE_LINE2":"2 48667  53.0565  75.0729 0001623  57.2634 302.8512 15.06393319 47514","TLE_LINE1":"1 48667U 21044AF  22094.35733500  .00001475  00000-0  11790-3 0  9993","GP_ID":"200426142","COUNTRY_CODE":"US","NORAD_CAT_ID":"48667","FILE":"3387897","ARG_OF_PERICENTER":"57.2634","MEAN_MOTION":"15.06393319","TIME_SYSTEM":"UTC","MEAN_MOTION_DDOT":"0.0000000000000","SITE":"AFETR","EPHEMERIS_TYPE":"0","LAUNCH_DATE":"2021-05-26","ECCENTRICITY":"0.00016230","RA_OF_ASC_NODE":"75.0729","REV_AT_EPOCH":"4751","REF_FRAME":"TEME","PERIOD":"95.593","MEAN_MOTION_DOT":"0.00001475","DECAY_DATE":null,"SEMIMAJOR_AXIS":"6925.369","RCS_SIZE":"LARGE","CENTER_NAME":"EARTH","OBJECT_TYPE":"PAYLOAD","PERIAPSIS":"546.110","OBJECT_NAME":"STARLINK-2735","APOAPSIS":"548.358","MEAN_ELEMENT_THEORY":"SGP4"}];
